1 88888U          80275.98708465  .00073094  13844-3  66816-4 0     8
2 88888  72.8435 115.9689 0086731  52.6988 110.5714 16.05824518   105

Reference number: 10
Ephem set number: 0
Ephem type: 0
Year: 1980
Day: 275.98708465
Average motion n0 ( rad/s ): 0.0700673114 ( 16.058245180 1/day )
BSTAR Drag term: 0.0000668160
Orbit declination i0 ( rad ): 1.2713588920 (  72.8435 deg )
Right accending raan ( rad ): 2.0240391004 ( 115.9689 deg )
Excentricity e0: 0.0086731
Perigelium arg w0 ( rad ): 0.9197675562 (  52.6988 deg )
Average anomaly m0 ( rad ): 1.9298349556 ( 110.5714 deg )

   0  2328.8724906 -5995.2126238  1720.0500683  2.9121070 -0.9835398 -7.0908150
 360  2456.0457852 -6071.9050273  1222.8404689  2.6793622 -0.4482081 -7.2288856
 720  2567.6846226 -6112.4089155   713.2912225  2.4399247  0.0989410 -7.3201880
1080  2663.4955222 -6115.1817218   194.6258401  2.1952512  0.6545391 -7.3630897
1440  2743.2942070 -6078.9068373  -329.7408963  1.9468062  1.2150083 -7.3562556

Отклонения от эталона:
   0 -0.00015953  0.00026682  0.00122494  0.00000041 -0.00000125  0.00000058
 360  0.00000879 -0.00012005 -0.00039723 -0.00000021  0.00000034 -0.00000010
 720  0.00078475 -0.00010204 -0.00160131 -0.00000090  0.00000183 -0.00000029
1080  0.00043550  0.00010198 -0.00232798 -0.00000120  0.00000247  0.00000005
1440  0.00181807  0.00099962 -0.00655563 -0.00000333  0.00000725  0.00000039
